{"type": "FeatureCollection", "features": [ {"type": "Feature", "properties": {"norad_id": 32260, "name": "GPS BIIRM-4 (PRN 15)", "group": "gnss", "lat": 47.422044318153176, "lon": 140.33406747783002, "alt_km": 19765.039004211118, "timestamp": "2025-12-06T20:37:56.312125+00:00", "meta": {"OBJECT_NAME": "GPS BIIRM-4 (PRN 15)", "OBJECT_ID": "2007-047A", "EPOCH": "2025-12-06T06:31:43.189824", "MEAN_MOTION": 2.0056467, "ECCENTRICITY": 0.01643332, "INCLINATION": 53.9509, "RA_OF_ASC_NODE": 88.0257, "ARG_OF_PERICENTER": 85.1745, "MEAN_ANOMALY": 276.6803, "EPHEMERIS_TYPE": 0, "CLASSIFICATION_TYPE": "U", "NORAD_CAT_ID": 32260, "ELEMENT_SET_NO": 999, "REV_AT_EPOCH": 13294, "BSTAR": 0, "MEAN_MOTION_DOT": -2.3e-07, "MEAN_MOTION_DDOT": 0}, "tle": {"line1": "1 32260U 07047A   25340.27202766 -.00000023  00000+0  00000+0 0  9991", "line2": "2 32260  53.9509  88.0257 0164333  85.1745 276.6803  2.00564670132947"}}, "geometry": {"type": "Point", "coordinates": [140.33406747783002, 47.422044318153176]}}, {"type": "Feature", "properties": {"norad_id": 32275, "name": "COSMOS 2433 (720)", "group": "gnss", "lat": -64.07610545708624, "lon": -149.16666235308378, "alt_km": 19122.43153420443, "timestamp": "2025-12-06T20:37:56.312137+00:00", "meta": {"OBJECT_NAME": "COSMOS 2433 (720)", "OBJECT_ID": "2007-052A", "EPOCH": "2025-12-05T02:41:16.127808", "MEAN_MOTION": 2.1310391, "ECCENTRICITY": 0.00054971, "INCLINATION": 65.6874, "RA_OF_ASC_NODE": 322.462, "ARG_OF_PERICENTER": 253.0747, "MEAN_ANOMALY": 106.8638, "EPHEMERIS_TYPE": 0, "CLASSIFICATION_TYPE": "U", "NORAD_CAT_ID": 32275, "ELEMENT_SET_NO": 999, "REV_AT_EPOCH": 14092, "BSTAR": 0, "MEAN_MOTION_DOT": -4.7e-07, "MEAN_MOTION_DDOT": 0}, "tle": {"line1": "1 32275U 07052A   25339.11199222 -.00000047  00000+0  00000+0 0  9992", "line2": "2 32275  65.6874 322.4620 0005497 253.0747 106.8638  2.13103910140927"}}, "geometry": {"type": "Point", "coordinates": [-149.16666235308378, -64.07610545708624]}}, {"type": "Feature", "properties": {"norad_id": 32276, "name": "COSMOS 2432 (719)", "group": "gnss", "lat": -22.76866550486155, "lon": 153.44573989262122, "alt_km": 19141.267355250508, "timestamp": "2025-12-06T20:37:56.312151+00:00", "meta": {"OBJECT_NAME": "COSMOS 2432 (719)", "OBJECT_ID": "2007-052B", "EPOCH": "2025-12-04T17:08:15.006912", "MEAN_MOTION": 2.13103047, "ECCENTRICITY": 0.00112577, "INCLINATION": 65.7035, "RA_OF_ASC_NODE": 322.5994, "ARG_OF_PERICENTER": 311.684, "MEAN_ANOMALY": 47.4656, "EPHEMERIS_TYPE": 0, "CLASSIFICATION_TYPE": "U", "NORAD_CAT_ID": 32276, "ELEMENT_SET_NO": 999, "REV_AT_EPOCH": 14093, "BSTAR": 0, "MEAN_MOTION_DOT": -4.6e-07, "MEAN_MOTION_DDOT": 0}, "tle": {"line1": "1 32276U 07052B   25338.71406258 -.00000046  00000+0  00000+0 0  9997", "line2": "2 32276  65.7035 322.5994 0011257 311.6840  47.4656  2.13103047140931"}}, "geometry": {"type": "Point", "coordinates": [153.44573989262122, -22.76866550486155]}}, {"type": "Feature", "properties": {"norad_id": 32384, "name": "GPS BIIRM-5 (PRN 29)", "group": "gnss", "lat": -12.594736360988186, "lon": 110.7939516924497, "alt_km": 20110.790419083445, "timestamp": "2025-12-06T20:37:56.312164+00:00", "meta": {"OBJECT_NAME": "GPS BIIRM-5 (PRN 29)", "OBJECT_ID": "2007-062A", "EPOCH": "2025-12-06T07:55:36.402816", "MEAN_MOTION": 2.00576852, "ECCENTRICITY": 0.00322142, "INCLINATION": 55.1879, "RA_OF_ASC_NODE": 281.903, "ARG_OF_PERICENTER": 162.6829, "MEAN_ANOMALY": 10.1914, "EPHEMERIS_TYPE": 0, "CLASSIFICATION_TYPE": "U", "NORAD_CAT_ID": 32384, "ELEMENT_SET_NO": 999, "REV_AT_EPOCH": 13164, "BSTAR": 0, "MEAN_MOTION_DOT": -3.7e-07, "MEAN_MOTION_DDOT": 0}, "tle": {"line1": "1 32384U 07062A   25340.33028244 -.00000037  00000+0  00000+0 0  9994", "line2": "2 32384  55.1879 281.9030 0032214 162.6829  10.1914  2.00576852131642"}}, "geometry": {"type": "Point", "coordinates": [110.7939516924497, -12.594736360988186]}}, {"type": "Feature", "properties": {"norad_id": 32393, "name": "COSMOS 2434 (721)", "group": "gnss", "lat": 25.566982544013907, "lon": 5.093726936630825, "alt_km": 19125.232172549873, "timestamp": "2025-12-06T20:37:56.312177+00:00", "meta": {"OBJECT_NAME": "COSMOS 2434 (721)", "OBJECT_ID": "2007-065A", "EPOCH": "2025-12-05T10:54:52.087392", "MEAN_MOTION": 2.1310119, "ECCENTRICITY": 0.00044378, "INCLINATION": 64.3147, "RA_OF_ASC_NODE": 198.4493, "ARG_OF_PERICENTER": 70.9033, "MEAN_ANOMALY": 82.6626, "EPHEMERIS_TYPE": 0, "CLASSIFICATION_TYPE": "U", "NORAD_CAT_ID": 32393, "ELEMENT_SET_NO": 999, "REV_AT_EPOCH": 13964, "BSTAR": 0, "MEAN_MOTION_DOT": 8.7e-07, "MEAN_MOTION_DDOT": 0}, "tle": {"line1": "1 32393U 07065A   25339.45476953  .00000087  00000+0  00000+0 0  9996", "line2": "2 32393  64.3147 198.4493 0004437  70.9033  82.6626  2.13101190139646"}}, "geometry": {"type": "Point", "coordinates": [5.093726936630825, 25.566982544013907]}}, {"type": "Feature", "properties": {"norad_id": 32395, "name": "COSMOS 2436 (723)", "group": "gnss", "lat": -60.88047634508432, "lon": 138.74468635319928, "alt_km": 19132.4152531984, "timestamp": "2025-12-06T20:37:56.312190+00:00", "meta": {"OBJECT_NAME": "COSMOS 2436 (723)", "OBJECT_ID": "2007-065C", "EPOCH": "2025-12-06T06:08:25.321632", "MEAN_MOTION": 2.13099991, "ECCENTRICITY": 0.00177355, "INCLINATION": 64.3235, "RA_OF_ASC_NODE": 198.4925, "ARG_OF_PERICENTER": 9.0742, "MEAN_ANOMALY": 172.1556, "EPHEMERIS_TYPE": 0, "CLASSIFICATION_TYPE": "U", "NORAD_CAT_ID": 32395, "ELEMENT_SET_NO": 999, "REV_AT_EPOCH": 13961, "BSTAR": 0, "MEAN_MOTION_DOT": 7.5e-07, "MEAN_MOTION_DDOT": 0}, "tle": {"line1": "1 32395U 07065C   25340.25584863  .00000075  00000+0  00000+0 0  9995", "line2": "2 32395  64.3235 198.4925 0017735   9.0742 172.1556  2.13099991139610"}}, "geometry": {"type": "Point", "coordinates": [138.74468635319928, -60.88047634508432]}}, {"type": "Feature", "properties": {"norad_id": 32711, "name": "GPS BIIRM-6 (PRN 07)", "group": "gnss", "lat": 45.97075693059268, "lon": -70.07950068279995, "alt_km": 20493.00384876601, "timestamp": "2025-12-06T20:37:56.312203+00:00", "meta": {"OBJECT_NAME": "GPS BIIRM-6 (PRN 07)", "OBJECT_ID": "2008-012A", "EPOCH": "2025-12-06T04:37:00.920928", "MEAN_MOTION": 2.00565248, "ECCENTRICITY": 0.02021844, "INCLINATION": 54.4761, "RA_OF_ASC_NODE": 157.6343, "ARG_OF_PERICENTER": 244.8762, "MEAN_ANOMALY": 113.0288, "EPHEMERIS_TYPE": 0, "CLASSIFICATION_TYPE": "U", "NORAD_CAT_ID": 32711, "ELEMENT_SET_NO": 999, "REV_AT_EPOCH": 12988, "BSTAR": 0, "MEAN_MOTION_DOT": 6.5e-07, "MEAN_MOTION_DDOT": 0}, "tle": {"line1": "1 32711U 08012A   25340.19237177  .00000065  00000+0  00000+0 0  9995", "line2": "2 32711  54.4761 157.6343 0202184 244.8762 113.0288  2.00565248129885"}}, "geometry": {"type": "Point", "coordinates": [-70.07950068279995, 45.97075693059268]}}, {"type": "Feature", "properties": {"norad_id": 35752, "name": "GPS BIIRM-8 (PRN 05)", "group": "gnss", "lat": 32.04270565781938, "lon": -169.84454207150907, "alt_km": 20105.032044229298, "timestamp": "2025-12-06T20:37:56.312216+00:00", "meta": {"OBJECT_NAME": "GPS BIIRM-8 (PRN 05)", "OBJECT_ID": "2009-043A", "EPOCH": "2025-12-06T04:15:17.726400", "MEAN_MOTION": 2.00565936, "ECCENTRICITY": 0.00519837, "INCLINATION": 56.0865, "RA_OF_ASC_NODE": 35.042, "ARG_OF_PERICENTER": 82.0207, "MEAN_ANOMALY": 285.0233, "EPHEMERIS_TYPE": 0, "CLASSIFICATION_TYPE": "U", "NORAD_CAT_ID": 35752, "ELEMENT_SET_NO": 999, "REV_AT_EPOCH": 11949, "BSTAR": 0, "MEAN_MOTION_DOT": -7.1e-07, "MEAN_MOTION_DDOT": 0}, "tle": {"line1": "1 35752U 09043A   25340.17728850 -.00000071  00000+0  00000+0 0  9997", "line2": "2 35752  56.0865  35.0420 0051983  82.0207 285.0233  2.00565936119496"}}, "geometry": {"type": "Point", "coordinates": [-169.84454207150907, 32.04270565781938]}}, {"type": "Feature", "properties": {"norad_id": 36111, "name": "COSMOS 2456 (730)", "group": "gnss", "lat": -45.21062404444423, "lon": 49.41617915909581, "alt_km": 19128.189316975368, "timestamp": "2025-12-06T20:37:56.312230+00:00", "meta": {"OBJECT_NAME": "COSMOS 2456 (730)", "OBJECT_ID": "2009-070A", "EPOCH": "2025-12-02T04:31:21.819072", "MEAN_MOTION": 2.13103415, "ECCENTRICITY": 0.0002798, "INCLINATION": 64.8943, "RA_OF_ASC_NODE": 77.6987, "ARG_OF_PERICENTER": 298.3251, "MEAN_ANOMALY": 26.4531, "EPHEMERIS_TYPE": 0, "CLASSIFICATION_TYPE": "U", "NORAD_CAT_ID": 36111, "ELEMENT_SET_NO": 999, "REV_AT_EPOCH": 12422, "BSTAR": 0, "MEAN_MOTION_DOT": -2.2e-07, "MEAN_MOTION_DDOT": 0}, "tle": {"line1": "1 36111U 09070A   25336.18844698 -.00000022  00000+0  00000+0 0  9998", "line2": "2 36111  64.8943  77.6987 0002798 298.3251  26.4531  2.13103415124220"}}, "geometry": {"type": "Point", "coordinates": [49.41617915909581, -45.21062404444423]}}, {"type": "Feature", "properties": {"norad_id": 36112, "name": "COSMOS 2457 (733)", "group": "gnss", "lat": 62.172170749716756, "lon": 139.9180061814069, "alt_km": 19121.13402806056, "timestamp": "2025-12-06T20:37:56.312243+00:00", "meta": {"OBJECT_NAME": "COSMOS 2457 (733)", "OBJECT_ID": "2009-070B", "EPOCH": "2025-12-06T07:10:29.262720", "MEAN_MOTION": 2.13100792, "ECCENTRICITY": 0.00047992, "INCLINATION": 64.8819, "RA_OF_ASC_NODE": 77.406, "ARG_OF_PERICENTER": 157.5732, "MEAN_ANOMALY": 209.8629, "EPHEMERIS_TYPE": 0, "CLASSIFICATION_TYPE": "U", "NORAD_CAT_ID": 36112, "ELEMENT_SET_NO": 999, "REV_AT_EPOCH": 12432, "BSTAR": 0, "MEAN_MOTION_DOT": -1.9e-07, "MEAN_MOTION_DDOT": 0}, "tle": {"line1": "1 36112U 09070B   25340.29894980 -.00000019  00000+0  00000+0 0  9991", "line2": "2 36112  64.8819  77.4060 0004799 157.5732 209.8629  2.13100792124327"}}, "geometry": {"type": "Point", "coordinates": [139.9180061814069, 62.172170749716756]}}]}